ONEWEB-0683             
1 56719U 23068K   24348.02007336 -.00000028  00000+0 -10762-3 0  9999
2 56719  87.9070   8.9102 0001949 101.8723 258.2626 13.15549637 77656
ONEWEB-0684             
1 56720U 23068L   24348.02798238 -.00000010  00000+0 -60323-4 0  9999
2 56720  87.9044   8.9733 0000391  53.8982 306.2184 13.15547597 77489
ONEWEB-0686             
1 56721U 23068M   24347.96174139  .00000105  00000+0  24132-3 0  9990
2 56721  87.9072 338.6394 0001601  99.6109 260.5203 13.16593531 79184
ONEWEB-0694             
1 56722U 23068N   24347.54851086  .00000023  00000+0  27817-4 0  9991
2 56722  87.9074 338.6416 0002066 100.1240 260.0124 13.16595068 79186
ONEWEB-0696             
1 56723U 23068P   24347.60493099  .00000143  00000+0  34641-3 0  9990
2 56723  87.9072   9.0445 0001568  84.9829 275.1480 13.15548742 76842
ONEWEB-0703             
1 56724U 23068Q   24348.07077984  .00000124  00000+0  29660-3 0  9998
2 56724  87.9072   8.9717 0001832  54.3376 305.7924 13.15549489 77499
ONEWEB-0721             
1 56725U 23068R   24348.50002315 -.00805818  00000+0 -48649+0 0  9992
2 56725  86.6763 262.6702 0008968  11.6396   4.2344 14.09742792 85561
ONEWEB-0015             
1 61594U 24188A   24347.89338290  .00001830  00000+0  22229-3 0  9991
2 61594  86.5740 147.4574 0006859  38.4291 321.7419 14.82950476  8993
